OBJECT_NAME,OBJECT_ID,EPOCH,MEAN_MOTION,ECCENTRICITY,INCLINATION,RA_OF_ASC_NODE,ARG_OF_PERICENTER,MEAN_ANOMALY,EPHEMERIS_TYPE,CLASSIFICATION_TYPE,NORAD_CAT_ID,ELEMENT_SET_NO,REV_AT_EPOCH,BSTAR,MEAN_MOTION_DOT,MEAN_MOTION_DDOT
H-2A R/B,2006-002B,2026-07-16T12:21:02.336832,15.18458470,.00508702,98.2596,356.0096,161.5725,198.7365,0,U,28932,999,11397,.23675166E-3,.4961E-4,0
RESURS-DK 1,2006-021A,2026-07-16T10:48:17.553888,15.13321208,.00071784,69.9306,263.7966,269.6714,90.3630,0,U,29228,999,10700,.53811404E-4,.852E-5,0
CZ-4B R/B,2006-046C,2026-07-16T14:07:32.739168,15.17987953,.00327397,97.5434,242.1056,177.3236,182.8179,0,U,29507,999,7959,.11202995E-3,.2237E-4,0
CZ-2C R/B,2007-010B,2026-07-16T07:06:15.476544,14.20281960,.00577583,98.4121,304.2264,280.5042,78.9631,0,U,31114,999,99797,.34016579E-4,.32E-6,0
COSMO-SKYMED 1,2007-023A,2026-07-16T14:36:44.086176,14.97223628,.00015424,97.8847,29.7137,102.4995,257.6399,0,U,31598,999,3419,.13173597E-3,.1464E-4,0
COSMOS 2428,2007-029A,2026-07-16T10:52:34.701024,14.12935216,.00072226,70.9382,293.0304,78.6139,281.5793,0,U,31792,999,98228,.16497754E-3,.26E-5,0
SL-16 R/B,2007-029B,2026-07-16T10:55:37.411968,14.14852343,.00019378,70.9744,261.7040,256.6178,192.2201,0,U,31793,999,98358,.14412073E-3,.23E-5,0
KORONAS-FOTON,2009-003A,2026-07-16T14:13:25.479264,15.46320967,.00120436,82.4312,141.5724,58.2403,302.0018,0,U,33504,999,96564,.1657772E-3,.8235E-4,0
CZ-2C R/B,2011-030B,2026-07-16T11:59:26.636640,14.81533720,.00507635,97.8670,152.3610,291.7928,188.8289,0,U,37731,999,80916,.62940168E-4,.449E-5,0
H-2A R/B,2012-025E,2026-07-16T10:57:58.364064,14.95839174,.00425521,98.4847,175.0215,250.8196,108.8415,0,U,38341,999,76746,.54254889E-4,.545E-5,0
SHIJIAN-16 (SJ-16),2013-057A,2026-07-16T14:19:17.548896,14.92674681,.00157167,74.9744,300.9797,161.4192,198.7574,0,U,39358,999,69073,.10280796E-3,.1033E-4,0
SL-4 R/B,2014-021B,2026-07-16T08:27:23.571360,15.42496747,.00896082,51.6065,67.8305,212.7417,146.7995,0,U,39679,999,67611,.10773645E-3,.5012E-4,0
ALOS-2,2014-029A,2026-07-16T15:03:01.260288,14.79469421,.00015941,97.9234,294.3700,91.1008,269.0386,0,U,39766,999,65593,.12108127E-3,.853E-5,0
YAOGAN-29,2015-069A,2026-07-16T14:14:52.389024,14.83109169,.00006688,98.0016,226.2714,11.6921,348.4308,0,U,41038,999,57498,.72603728E-4,.537E-5,0
ASTRO-H (HITOMI),2016-012A,2026-07-16T10:31:49.233792,15.10635248,.00096173,30.9980,245.2550,187.9350,172.1137,0,U,41337,999,57171,.65371596E-4,.1205E-4,0
HXMT (HUIYAN),2017-034A,2026-07-16T14:25:34.837824,15.18696403,.00321262,43.0154,19.2286,329.5171,30.3810,0,U,42758,999,50213,.12007585E-3,.2322E-4,0
SAOCOM 1A,2018-076A,2026-07-16T15:18:57.108672,14.82148314,.00014598,97.8881,23.9585,85.4266,274.7114,0,U,43641,999,42046,.12559796E-4,.48E-6,0
H-2A R/B,2018-084L,2026-07-16T15:32:23.456544,15.46238091,.00204614,98.8528,82.9967,295.2060,64.7063,0,U,43682,999,42567,.249075E-3,.12229E-3,0
SAOCOM 1B,2020-059A,2026-07-16T14:26:39.324192,14.82158277,.0001508,97.8884,23.0189,83.6941,276.4444,0,U,46265,999,31784,.28428265E-4,.174E-5,0
CSS (TIANHE),2021-035A,2026-07-16T13:27:48.180384,15.58128282,.00021757,41.4698,143.5547,301.3971,58.6654,0,U,48274,999,29775,.1939437E-4,.1173E-4,0
COSMOS 2550,2021-056A,2026-07-16T15:05:11.909184,15.33836390,.0008523,67.1436,10.8468,270.1056,89.9122,0,U,48865,999,28323,.89397307E-4,.2751E-4,0
CZ-2C R/B,2022-058K,2026-07-16T12:35:00.873888,15.63930727,.00302311,50.1854,10.6251,28.2348,332.0257,0,U,52794,999,23023,.28063466E-3,.27151E-3,0
CZ-2C R/B,2022-132E,2026-07-16T11:20:45.367584,15.75107340,.00091996,97.2888,205.8835,336.0562,24.0274,0,U,54039,999,21055,.2823381E-3,.42145E-3,0
GSLV R/B,2022-138AN,2026-07-16T07:44:58.500384,14.97385341,.00234207,87.3817,123.2008,48.5168,311.8070,0,U,54149,999,20317,.11303208E-3,.135E-4,0
XRISM,2023-137A,2026-07-16T08:35:39.285312,15.12673704,.00078808,31.0009,170.6085,257.7036,102.2721,0,U,57800,999,15728,.10934713E-3,.206E-4,0
ACS3,2024-077B,2026-07-16T07:55:08.239008,13.95283028,.0126899,97.1745,109.6610,35.3684,325.5819,0,U,59588,999,11210,.41236429E-2,.594E-4,0
SPACEMOBILE-003,2024-163A,2026-07-16T07:56:05.515296,15.20707825,.00046663,52.9669,175.4223,197.1452,162.9385,0,U,61045,999,10220,.59791029E-4,.1005E-4,0
SPACEMOBILE-005,2024-163B,2026-07-16T10:41:30.943392,15.20723000,.00086649,52.9760,174.8439,199.5562,160.5101,0,U,61046,999,10221,.13228634E-3,.2622E-4,0
SPACEMOBILE-001,2024-163C,2026-07-16T09:04:28.188192,15.20742349,.00071066,52.9728,174.8637,197.0870,162.9886,0,U,61047,999,10220,.19357534E-4,.103E-5,0
SPACEMOBILE-002,2024-163D,2026-07-16T07:06:33.944544,15.20776804,.00058662,52.9781,175.2802,196.1534,163.9275,0,U,61048,999,10219,-.34611614E-4,-.11E-4,0
